{
  "type": "FeatureCollection",
  "features": [
    {
      "type": "Feature",
      "id": "hamar",
      "geometry": {
        "type": "Polygon",
        "coordinates": [
          [
            [
              11.270287075043203,
              60.85039629200989
            ],
            [
              11.270312828231608,
              60.85038561772025
            ],
            [
              11.27034823724581,
              60.85037091813636
            ],
            [
              11.270409595966925,
              60.850345720550244
            ],
            [
              11.273218638754383,
              60.84918521090846
            ],
            [
              11.273396589529359,
              60.84911169357627
            ],
            [
              11.275049609711532,
              60.848428676783726
            ],
            [
              11.274162825256811,
              60.84824716305899
            ],
            [
              11.273710689656191,
              60.84812269048226
            ],
            [
              11.273608105359518,
              60.848096133238855
            ],
            [
              11.272558030949112,
              60.84778991942147
            ],
            [
              11.271998258204395,
              60.84765046530079
            ],
            [
              11.27153146455037,
              60.84745671409638
            ],
            [
              11.27116868668282,
              60.84732263918385
            ],
            [
              11.271236406337978,
              60.847203024536405
            ],
            [
              11.27122431546107,
              60.846921199747214
            ],
            [
              11.271524891351525,
              60.84654481115825
            ],
            [
              11.271690943925222,
              60.84635572136452
            ],
            [
              11.272194227042936,
              60.845995574603585
            ],
            [
              11.272246281370379,
              60.845914666421436
            ],
            [
              11.272387963133506,
              60.8458179616121
            ],
            [
              11.272503187780881,
              60.84566754363333
            ],
            [
              11.272603374412748,
              60.845396125202214
            ],
            [
              11.272654666120053,
              60.844962423596876
            ],
            [
              11.272705285828385,
              60.84486653980432
            ],
            [
              11.272707076705853,
              60.844839923310104
            ],
            [
              11.272711002946329,
              60.84482782126173
            ],
            [
              11.272721407583472,
              60.84481363364822
            ],
            [
              11.272742949622726,
              60.844795575126504
            ],
            [
              11.27283818823022,
              60.84461522602933
            ],
            [
              11.273130378226789,
              60.844281998057134
            ],
            [
              11.273985460846278,
              60.84395173011544
            ],
            [
              11.274100253705976,
              60.84359859791204
            ],
            [
              11.27443451114582,
              60.84322567372774
            ],
            [
              11.274414651238338,
              60.84302912805808
            ],
            [
              11.274515504164368,
              60.84226764761704
            ],
            [
              11.274343240962283,
              60.84198296494125
            ],
            [
              11.274453456305634,
              60.84186855707582
            ],
            [
              11.27455888544207,
              60.841694590732054
            ],
            [
              11.274409988502754,
              60.84109640581467
            ],
            [
              11.274264409388262,
              60.8405059787951
            ],
            [
              11.274095057824635,
              60.84038642256485
            ],
            [
              11.274025148232187,
              60.84007081632937
            ],
            [
              11.274380025730638,
              60.83888531507422
            ],
            [
              11.274487714373736,
              60.83874068097977
            ],
            [
              11.27458899540636,
              60.83832463422922
            ],
            [
              11.275333440093938,
              60.83787721889732
            ],
            [
              11.275444408719519,
              60.83748373130914
            ],
            [
              11.275498452703193,
              60.83746476255288
            ],
            [
              11.275526712244627,
              60.837344555975676
            ],
            [
              11.275530418714263,
              60.83724138162904
            ],
            [
              11.27552760731392,
              60.83714747914787
            ],
            [
              11.27546670085361,
              60.83692495252298
            ],
            [
              11.27542366926638,
              60.836718290481365
            ],
            [
              11.275389771509904,
              60.83659868745941
            ],
            [
              11.275343881168203,
              60.83640357056922
            ],
            [
              11.275316816039352,
              60.83634124581136
            ],
            [
              11.275316156226696,
              60.83633973007135
            ],
            [
              11.27525237797637,
              60.836239854176426
            ],
            [
              11.275250575977372,
              60.83623521413235
            ],
            [
              11.275219511836992,
              60.83615804721467
            ],
            [
              11.275218623595833,
              60.8361559066133
            ],
            [
              11.275164367963395,
              60.836032067538106
            ],
            [
              11.275142236431316,
              60.83597441958421
            ],
            [
              11.275125453478063,
              60.83592988437015
            ],
            [
              11.27511389981048,
              60.83588642824569
            ],
            [
              11.275085694702822,
              60.83577957280112
            ],
            [
              11.275062326395247,
              60.83564497136843
            ],
            [
              11.275009260158017,
              60.835527489209596
            ],
            [
              11.27500966489698,
              60.83552541653204
            ],
            [
              11.274926409498343,
              60.83552170658088
            ],
            [
              11.2747850117692,
              60.83550514895168
            ],
            [
              11.27362061076278,
              60.83536866402902
            ],
            [
              11.272749888454507,
              60.835200795028506
            ],
            [
              11.272209523058093,
              60.835106104644375
            ],
            [
              11.271751926377055,
              60.835034173791556
            ],
            [
              11.271749548951465,
              60.83503178889476
            ],
            [
              11.271599685501304,
              60.834908846543115
            ],
            [
              11.2714720710804,
              60.83481417993591
            ],
            [
              11.271392724919153,
              60.834759205276406
            ],
            [
              11.27119194040316,
              60.8346343389861
            ],
            [
              11.270962185433856,
              60.83450053117136
            ],
            [
              11.270606251101933,
              60.834302569576536
            ],
            [
              11.270318098344312,
              60.83413920940881
            ],
            [
              11.27023467648612,
              60.83409157825761
            ],
            [
              11.27019535772049,
              60.83406646478638
            ],
            [
              11.270108328334667,
              60.834012068326594
            ],
            [
              11.269991442336293,
              60.83393105113891
            ],
            [
              11.269875212991558,
              60.8338385260192
            ],
            [
              11.269856367186684,
              60.833821868757575
            ],
            [
              11.269762924491033,
              60.83373928767467
            ],
            [
              11.269639559668319,
              60.83361876978613
            ],
            [
              11.26959779653651,
              60.83357214105354
            ],
            [
              11.269496315438687,
              60.83344882826853
            ],
            [
              11.269461670764436,
              60.83340657016523
            ],
            [
              11.269297850965243,
              60.83318515086339
            ],
            [
              11.26915541694267,
              60.83299543530866
            ],
            [
              11.269044380304958,
              60.832861864685185
            ],
            [
              11.268934894808172,
              60.8327449739826
            ],
            [
              11.268793840256242,
              60.832611011935526
            ],
            [
              11.268648605644797,
              60.832482958525304
            ],
            [
              11.26848205617622,
              60.83236568379345
            ],
            [
              11.268282678810538,
              60.83223692747786
            ],
            [
              11.266832587593944,
              60.83131956854819
            ],
            [
              11.266687750028998,
              60.83136584363045
            ],
            [
              11.26664133374538,
              60.83138072822172
            ],
            [
              11.266594917418402,
              60.83139561279713
            ],
            [
              11.26654345701252,
              60.83141201954613
            ],
            [
              11.266538603101123,
              60.83141362834591
            ],
            [
              11.266441803404165,
              60.83144454215034
            ],
            [
              11.266410861183894,
              60.83145449506065
            ],
            [
              11.26639520946822,
              60.83145951946906
            ],
            [
              11.266348786560787,
              60.83147431424935
            ],
            [
              11.2663025473842,
              60.831489105913846
            ],
            [
              11.266264945151589,
              60.831501147138646
            ],
            [
              11.267561029228876,
              60.832327700561144
            ],
            [
              11.267907110834438,
              60.832548200866434
            ],
            [
              11.268067510179506,
              60.8326565982954
            ],
            [
              11.268141352122518,
              60.83271714664487
            ],
            [
              11.26829258178117,
              60.8328493208296
            ],
            [
              11.268433492526604,
              60.832996848372524
            ],
            [
              11.26858829241353,
              60.833184559473835
            ],
            [
              11.26869196082477,
              60.83333100907578
            ],
            [
              11.268828307853616,
              60.8335127442477
            ],
            [
              11.268925590093499,
              60.83363136805044
            ],
            [
              11.269028944995823,
              60.8337525837787
            ],
            [
              11.269039657966843,
              60.83376354031666
            ],
            [
              11.269151174169417,
              60.833875277024404
            ],
            [
              11.26925918963559,
              60.833973959306974
            ],
            [
              11.269373548029856,
              60.834066067454174
            ],
            [
              11.269436206151266,
              60.834111534945826
            ],
            [
              11.269472286147947,
              60.83413769134271
            ],
            [
              11.269636774670465,
              60.834249071778316
            ],
            [
              11.2698437486928,
              60.83437311718598
            ],
            [
              11.270001370256772,
              60.834462877186525
            ],
            [
              11.270250197805941,
              60.83459843014023
            ],
            [
              11.270502837672856,
              60.83473840914537
            ],
            [
              11.270655367607858,
              60.83482897300777
            ],
            [
              11.270776724618226,
              60.83490290827192
            ],
            [
              11.270915706317652,
              60.83499441938231
            ],
            [
              11.271037658841133,
              60.83508451165617
            ],
            [
              11.27115117182999,
              60.83518013558739
            ],
            [
              11.271245683794309,
              60.83527248790225
            ],
            [
              11.271364888829002,
              60.83540681696265
            ],
            [
              11.27145603048551,
              60.835539824004215
            ],
            [
              11.271527237567756,
              60.83566418618359
            ],
            [
              11.2715936794885,
              60.83580955656604
            ],
            [
              11.271620157327185,
              60.83590260978787
            ],
            [
              11.271632522351887,
              60.83598090195283
            ],
            [
              11.271646671481117,
              60.836068774513684
            ],
            [
              11.27165045887415,
              60.83611954765483
            ],
            [
              11.271651171094133,
              60.836225521243506
            ],
            [
              11.27164243274689,
              60.836309828759504
            ],
            [
              11.271634953183487,
              60.83634705018727
            ],
            [
              11.271624999228626,
              60.836396079649724
            ],
            [
              11.27160509176146,
              60.836475995261154
            ],
            [
              11.271577210666653,
              60.83655505767327
            ],
            [
              11.27154059769663,
              60.836640734620325
            ],
            [
              11.271498720968836,
              60.836717069619574
            ],
            [
              11.27147824039189,
              60.83675001991142
            ],
            [
              11.271459058309036,
              60.836780523153074
            ],
            [
              11.27142061681987,
              60.83683784838279
            ],
            [
              11.271367539407247,
              60.83691194758891
            ],
            [
              11.271284476209098,
              60.8370069424176
            ],
            [
              11.271209965413604,
              60.83709020605992
            ],
            [
              11.27115150181986,
              60.83715065401329
            ],
            [
              11.271089995261326,
              60.83720971627984
            ],
            [
              11.27099752852329,
              60.83729669638875
            ],
            [
              11.270878264256911,
              60.83740802100292
            ],
            [
              11.27078392647794,
              60.83749458348024
            ],
            [
              11.270699124843798,
              60.837572901081536
            ],
            [
              11.27062587653283,
              60.837648059380086
            ],
            [
              11.270582136497751,
              60.8376929891339
            ],
            [
              11.270526053045192,
              60.837750702014155
            ],
            [
              11.270458795512022,
              60.83783249534673
            ],
            [
              11.270401847149575,
              60.83790396497917
            ],
            [
              11.27037561004909,
              60.83793880871107
            ],
            [
              11.270371230892263,
              60.83791858377742
            ],
            [
              11.270334900563757,
              60.83796680133208
            ],
            [
              11.27027951564087,
              60.83805513032213
            ],
            [
              11.270220780162845,
              60.83815330608595
            ],
            [
              11.27016677554155,
              60.83828445500784
            ],
            [
              11.270136592517318,
              60.838377837038
            ],
            [
              11.270114475877945,
              60.83846299913401
            ],
            [
              11.270116235215891,
              60.83856823640375
            ],
            [
              11.270116001213424,
              60.83857012654053
            ],
            [
              11.269858137701066,
              60.838559303606665
            ],
            [
              11.269766937741222,
              60.838550066032624
            ],
            [
              11.269662946519615,
              60.838539517552995
            ],
            [
              11.26929360102161,
              60.83849554749562
            ],
            [
              11.268946881553187,
              60.83843844017933
            ],
            [
              11.268312293628115,
              60.838302840685294
            ],
            [
              11.267770375450135,
              60.838249115328686
            ],
            [
              11.267744235935703,
              60.83824901758973
            ],
            [
              11.266968626175162,
              60.838245040190586
            ],
            [
              11.26644196057265,
              60.83826631977431
            ],
            [
              11.266242457764122,
              60.838253158246076
            ],
            [
              11.266161806467945,
              60.838242123603656
            ],
            [
              11.265787010701116,
              60.8381912301084
            ],
            [
              11.265422194087826,
              60.83825010469125
            ],
            [
              11.265354875463713,
              60.83826102984773
            ],
            [
              11.265177053456059,
              60.8382733688226
            ],
            [
              11.264536723143598,
              60.838267006913775
            ],
            [
              11.26435803585039,
              60.838248911058045
            ],
            [
              11.26426748438071,
              60.83844130040723
            ],
            [
              11.264256712279785,
              60.83847633134103
            ],
            [
              11.259469802265402,
              60.84099941962035
            ],
            [
              11.259470686111028,
              60.841064073631344
            ],
            [
              11.259473110241032,
              60.841244387168
            ],
            [
              11.259473343586679,
              60.841265939534665
            ],
            [
              11.259475017336282,
              60.841375668834985
            ],
            [
              11.259477378499504,
              60.841549875808425
            ],
            [
              11.259485227291055,
              60.84210939898233
            ],
            [
              11.259512869528784,
              60.842162016549146
            ],
            [
              11.259534572639087,
              60.84220350674305
            ],
            [
              11.259537109305274,
              60.84230459900763
            ],
            [
              11.259517913732923,
              60.842551471813664
            ],
            [
              11.259413542421335,
              60.84292408466497
            ],
            [
              11.2593451233294,
              60.84333929531451
            ],
            [
              11.259340147447663,
              60.84354775637897
            ],
            [
              11.25929588953321,
              60.84369256829582
            ],
            [
              11.25923287152275,
              60.843855838789935
            ],
            [
              11.259582827129476,
              60.84393474294022
            ],
            [
              11.260908428067054,
              60.84377017546498
            ],
            [
              11.261070287866673,
              60.843747692221875
            ],
            [
              11.261593782448116,
              60.84369846497626
            ],
            [
              11.262022380175539,
              60.843655593438
            ],
            [
              11.262362737956611,
              60.84361429591835
            ],
            [
              11.262819657564084,
              60.84356070575096
            ],
            [
              11.263081817463691,
              60.843538057990024
            ],
            [
              11.263426757409288,
              60.843517338711855
            ],
            [
              11.263884005780184,
              60.843491852382094
            ],
            [
              11.26432492285801,
              60.84346448403928
            ],
            [
              11.26477341595889,
              60.84344794435815
            ],
            [
              11.264910018352817,
              60.84345354606135
            ],
            [
              11.265522870769315,
              60.843514890198996
            ],
            [
              11.26601024943635,
              60.843579604887786
            ],
            [
              11.266588776612487,
              60.843707180037796
            ],
            [
              11.26658463740006,
              60.84382284572101
            ],
            [
              11.266583174099736,
              60.843867150714686
            ],
            [
              11.266558780986056,
              60.84455440095053
            ],
            [
              11.266513437939059,
              60.8458320192614
            ],
            [
              11.266486609976333,
              60.84588465601359
            ],
            [
              11.266081036264383,
              60.84667919966748
            ],
            [
              11.265097144299595,
              60.847514118130974
            ],
            [
              11.264924359025624,
              60.847660738968464
            ],
            [
              11.261777825940587,
              60.850330484136364
            ],
            [
              11.263357263668267,
              60.850500057452244
            ],
            [
              11.266808891893097,
              60.850641372492156
            ],
            [
              11.267738614173007,
              60.85071667431454
            ],
            [
              11.269395979943674,
              60.85108084541497
            ],
            [
              11.269413557989525,
              60.85108468023994
            ],
            [
              11.269748702260905,
              60.85115833023599
            ],
            [
              11.269762164870263,
              60.851161246517215
            ],
            [
              11.269814905647667,
              60.851172840550525
            ],
            [
              11.269832490158965,
              60.851176765030814
            ],
            [
              11.269839034401658,
              60.85117818141756
            ],
            [
              11.269862636966899,
              60.851183890439174
            ],
            [
              11.269867691022956,
              60.85118506253722
            ],
            [
              11.269920508267562,
              60.85119773305575
            ],
            [
              11.270032332100733,
              60.85122467604009
            ],
            [
              11.270082714382145,
              60.85123675889537
            ],
            [
              11.270085339728045,
              60.85123743309795
            ],
            [
              11.270107193442824,
              60.85113547970223
            ],
            [
              11.270121049176963,
              60.85107129517867
            ],
            [
              11.270264181183526,
              60.85040575035975
            ],
            [
              11.270287075043203,
              60.85039629200989
            ]
          ]
        ]
      },
      "properties": {
        "projectId": "hamar",
        "planId": "079500",
        "name": "Detaljreguleringsplan for Heggvin næringspark",
        "sourceId": "plan-hamar",
        "kind": "regulatory_plan_extent",
        "effectiveDate": "2022-04-27T00:00:00",
        "accessedAt": "2026-10-01",
        "confidence": "middels",
        "sourceCrs": "Geografisk lon/lat som publisert for kartvisning; tolket som GeoJSON/WGS84 etter registerets frontend, EPSG ikke oppgitt i API-responsen.",
        "qaStatus": "Ringer lukket og topologisk gyldige; uavhengig landmåling, CRS-bekreftelse og faglig planvalidering gjenstår.",
        "lastProcessedAt": "2024-11-26T00:00:00",
        "sourceUrl": "https://api.arealplaner.no/api/gi/kunder/hamar3403/planomraader/3403/079500",
        "metadataUrl": "https://api.arealplaner.no/api/kunder/hamar3403/arealplaner/156",
        "method": "Eksakt plan-ID hentet via offentlig planomriss-endepunkt. x/y overført uendret til GeoJSON [lon,lat], samme metode som registerets frontend. Ingen håndtegning, simplifisering eller arealberegning.",
        "warning": "Hele planområdet; kan omfatte vei, grøntareal og flere virksomheter. Ikke datasenterets fotavtrykk eller faktisk nedbygd natur."
      }
    },
    {
      "type": "Feature",
      "id": "gromstul",
      "geometry": {
        "type": "Polygon",
        "coordinates": [
          [
            [
              9.537731197091905,
              59.26679127442118
            ],
            [
              9.537653332629885,
              59.26678153785934
            ],
            [
              9.537511840210705,
              59.26676380191688
            ],
            [
              9.53740040498977,
              59.26674989316826
            ],
            [
              9.53722077148025,
              59.26672737507584
            ],
            [
              9.537179114906559,
              59.26672215866993
            ],
            [
              9.536649181530443,
              59.26665582304211
            ],
            [
              9.536605415999722,
              59.26665034573168
            ],
            [
              9.536446876227174,
              59.26663052358066
            ],
            [
              9.536160203413505,
              59.266594615089765
            ],
            [
              9.53587827707168,
              59.26655931506605
            ],
            [
              9.53427883114297,
              59.26635906819506
            ],
            [
              9.533526218743647,
              59.2662648061804
            ],
            [
              9.53351971468266,
              59.26626393478609
            ],
            [
              9.533289819144233,
              59.266235151299036
            ],
            [
              9.533053245950505,
              59.266205586504725
            ],
            [
              9.53304797255799,
              59.26620488965762
            ],
            [
              9.530254109091214,
              59.26585501409607
            ],
            [
              9.52254842240353,
              59.26547333703958
            ],
            [
              9.516430362745654,
              59.26587860884385
            ],
            [
              9.516091036852538,
              59.265943356292645
            ],
            [
              9.515974582233266,
              59.26597956003509
            ],
            [
              9.51590998241208,
              59.26599966281659
            ],
            [
              9.514319396030249,
              59.26649395322827
            ],
            [
              9.512585552157535,
              59.26784785744893
            ],
            [
              9.51210782627044,
              59.27108269621333
            ],
            [
              9.511790640076615,
              59.273329052655505
            ],
            [
              9.510762182926909,
              59.274949568844434
            ],
            [
              9.507947055628298,
              59.27627962560709
            ],
            [
              9.500617623875113,
              59.27714426499543
            ],
            [
              9.500678372554914,
              59.27763678726421
            ],
            [
              9.500683952572052,
              59.277682206749766
            ],
            [
              9.500816819535302,
              59.27875997512179
            ],
            [
              9.504879239006328,
              59.2805403739241
            ],
            [
              9.504847055075821,
              59.28097434283
            ],
            [
              9.504780371502129,
              59.281875696661025
            ],
            [
              9.504732996416594,
              59.28251663316799
            ],
            [
              9.5037344393106,
              59.28620246944454
            ],
            [
              9.503239719581575,
              59.2883596804574
            ],
            [
              9.507803043474883,
              59.28897634652845
            ],
            [
              9.516320107557304,
              59.28691248164356
            ],
            [
              9.52134423914644,
              59.28407405221642
            ],
            [
              9.521923845898653,
              59.283746549566914
            ],
            [
              9.522120358893028,
              59.283548102699385
            ],
            [
              9.522146454422792,
              59.283521595623895
            ],
            [
              9.52307506271366,
              59.282583814970025
            ],
            [
              9.52374652816999,
              59.28258372081753
            ],
            [
              9.523749802112473,
              59.282522640718696
            ],
            [
              9.524067211994627,
              59.28158156166543
            ],
            [
              9.524355068709971,
              59.281310451214416
            ],
            [
              9.52525234375997,
              59.28051098945318
            ],
            [
              9.526065155550143,
              59.280086167106994
            ],
            [
              9.526054578739076,
              59.27998068970244
            ],
            [
              9.528059330326913,
              59.27867598075147
            ],
            [
              9.528149111084897,
              59.27861508851495
            ],
            [
              9.528233508993523,
              59.27855790002912
            ],
            [
              9.528377817441012,
              59.27846005644886
            ],
            [
              9.529511321119303,
              59.27770783085842
            ],
            [
              9.531345025875586,
              59.27593803966047
            ],
            [
              9.531591360065077,
              59.27570021996577
            ],
            [
              9.531771090882106,
              59.27551233365136
            ],
            [
              9.531772991473957,
              59.275510439996445
            ],
            [
              9.531877099985719,
              59.27540162083059
            ],
            [
              9.532048159572906,
              59.2751529719056
            ],
            [
              9.532114295579902,
              59.27487089523472
            ],
            [
              9.53211545229358,
              59.2748663104798
            ],
            [
              9.532127786001874,
              59.2748133652436
            ],
            [
              9.532128610022083,
              59.27480994930621
            ],
            [
              9.532226180904548,
              59.27442851014845
            ],
            [
              9.532316299039607,
              59.2740643438173
            ],
            [
              9.532323071955092,
              59.27403737478369
            ],
            [
              9.532619377737156,
              59.27338292527388
            ],
            [
              9.532702462166675,
              59.273164270667195
            ],
            [
              9.532761861975766,
              59.27287835952
            ],
            [
              9.532793681453144,
              59.27251164731478
            ],
            [
              9.532838028842713,
              59.272306801362646
            ],
            [
              9.532883028686168,
              59.27206513286397
            ],
            [
              9.5329657003716,
              59.2717754443419
            ],
            [
              9.53305148463573,
              59.271550312465756
            ],
            [
              9.533083157101403,
              59.271432718479446
            ],
            [
              9.533201873187021,
              59.27109214263872
            ],
            [
              9.533270258608434,
              59.270876511308025
            ],
            [
              9.533634894305262,
              59.27030888960351
            ],
            [
              9.53424900621932,
              59.26966408916102
            ],
            [
              9.534544816325008,
              59.26944186606982
            ],
            [
              9.534543840521243,
              59.26935718436694
            ],
            [
              9.534818270267797,
              59.26908071663547
            ],
            [
              9.535088926061965,
              59.268776424391014
            ],
            [
              9.535344133928705,
              59.26852769430749
            ],
            [
              9.535690095555175,
              59.26823817829005
            ],
            [
              9.536268095636801,
              59.26785655417213
            ],
            [
              9.536711516138675,
              59.26759653886713
            ],
            [
              9.536969431873102,
              59.267365126626345
            ],
            [
              9.537252209590545,
              59.2671754602242
            ],
            [
              9.537335186190074,
              59.26711988797155
            ],
            [
              9.537386220830978,
              59.26708564139411
            ],
            [
              9.537664568995122,
              59.26687120628142
            ],
            [
              9.537731197091905,
              59.26679127442118
            ]
          ]
        ]
      },
      "properties": {
        "projectId": "gromstul",
        "planId": "2017004",
        "name": "Reguleringsplan for gbnr. 11/1 - datasenter Gromstul",
        "sourceId": "plan-gromstul",
        "kind": "regulatory_plan_extent",
        "effectiveDate": "2018-05-31T00:00:00",
        "accessedAt": "2026-10-01",
        "confidence": "middels",
        "sourceCrs": "Geografisk lon/lat som publisert for kartvisning; tolket som GeoJSON/WGS84 etter registerets frontend, EPSG ikke oppgitt i API-responsen.",
        "qaStatus": "Ringer lukket og topologisk gyldige; uavhengig landmåling, CRS-bekreftelse og faglig planvalidering gjenstår.",
        "lastProcessedAt": null,
        "sourceUrl": "https://api.arealplaner.no/api/gi/kunder/skien4003/planomraader/4003/2017004",
        "metadataUrl": "https://api.arealplaner.no/api/kunder/skien4003/arealplaner/726",
        "method": "Eksakt plan-ID hentet via offentlig planomriss-endepunkt. x/y overført uendret til GeoJSON [lon,lat], samme metode som registerets frontend. Ingen håndtegning, simplifisering eller arealberegning.",
        "warning": "Hele planområdet; kan omfatte vei, grøntareal og flere virksomheter. Ikke datasenterets fotavtrykk eller faktisk nedbygd natur."
      }
    }
  ]
}
